
[{"ORDINAL":"2","COMMENT":"GENERATED VIA SPACETRACK.ORG API","ORIGINATOR":"JSPOC","NORAD_CAT_ID":"41042","OBJECT_NAME":"CZ-4B DEB","OBJECT_TYPE":"DEBRIS","CLASSIFICATION_TYPE":"U","INTLDES":"15064E","EPOCH":"2016-03-23 06:32:48","EPOCH_MICROSECONDS":"438240","MEAN_MOTION":"14.82694996","ECCENTRICITY":"0.0222828","INCLINATION":"97.1938","RA_OF_ASC_NODE":"202.8956","ARG_OF_PERICENTER":"84.9382","MEAN_ANOMALY":"277.7162","EPHEMERIS_TYPE":"0","ELEMENT_SET_NO":"999","REV_AT_EPOCH":"1876","BSTAR":"0.00086505","MEAN_MOTION_DOT":"0.00010775","MEAN_MOTION_DDOT":"0","FILE":"2010748","TLE_LINE0":"0 CZ-4B DEB","TLE_LINE1":"1 41042U 15064E   16083.27278285  .00010775  00000-0  86505-3 0  9993","TLE_LINE2":"2 41042  97.1938 202.8956 0222828  84.9382 277.7162 14.82694996 18762","OBJECT_ID":"2015-064E","OBJECT_NUMBER":"41042","SEMIMAJOR_AXIS":"6998.967","PERIOD":"97.120","APOGEE":"776.788","PERIGEE":"464.875"},{"ORDINAL":"3","COMMENT":"GENERATED VIA SPACETRACK.ORG API","ORIGINATOR":"JSPOC","NORAD_CAT_ID":"40666","OBJECT_NAME":"ARIANE 5 DEB (SYLDA)","OBJECT_TYPE":"DEBRIS","CLASSIFICATION_TYPE":"U","INTLDES":"15026D","EPOCH":"2016-03-23 06:43:02","EPOCH_MICROSECONDS":"197920","MEAN_MOTION":"2.64675733","ECCENTRICITY":"0.7010831","INCLINATION":"4.0939","RA_OF_ASC_NODE":"265.3826","ARG_OF_PERICENTER":"74.6978","MEAN_ANOMALY":"347.8197","EPHEMERIS_TYPE":"0","ELEMENT_SET_NO":"999","REV_AT_EPOCH":"709","BSTAR":"0.01214","MEAN_MOTION_DOT":"0.00104235","MEAN_MOTION_DDOT":"0","FILE":"2010730","TLE_LINE0":"0 ARIANE 5 DEB (SYLDA)","TLE_LINE1":"1 40666U 15026D   16083.27988655  .00104235  00000-0  12140-1 0  9998","TLE_LINE2":"2 40666   4.0939 265.3826 7010831  74.6978 347.8197  2.64675733  7090","OBJECT_ID":"2015-026D","OBJECT_NUMBER":"40666","SEMIMAJOR_AXIS":"22076.273","PERIOD":"544.061","APOGEE":"31175.440","PERIGEE":"220.836"},{"ORDINAL":"2","COMMENT":"GENERATED VIA SPACETRACK.ORG API","ORIGINATOR":"JSPOC","NORAD_CAT_ID":"40666","OBJECT_NAME":"ARIANE 5 DEB (SYLDA)","OBJECT_TYPE":"DEBRIS","CLASSIFICATION_TYPE":"U","INTLDES":"15026D","EPOCH":"2016-03-23 06:43:02","EPOCH_MICROSECONDS":"56224","MEAN_MOTION":"2.64662522","ECCENTRICITY":"0.7010826","INCLINATION":"4.0939","RA_OF_ASC_NODE":"265.3895","ARG_OF_PERICENTER":"74.6872","MEAN_ANOMALY":"347.822","EPHEMERIS_TYPE":"0","ELEMENT_SET_NO":"999","REV_AT_EPOCH":"709","BSTAR":"0.012632","MEAN_MOTION_DOT":"0.0010785","MEAN_MOTION_DDOT":"0","FILE":"2010941","TLE_LINE0":"0 ARIANE 5 DEB (SYLDA)","TLE_LINE1":"1 40666U 15026D   16083.27988491  .00107850  00000-0  12632-1 0  9998","TLE_LINE2":"2 40666   4.0939 265.3895 7010826  74.6872 347.8220  2.64662522  7092","OBJECT_ID":"2015-026D","OBJECT_NUMBER":"40666","SEMIMAJOR_AXIS":"22077.007","PERIOD":"544.089","APOGEE":"31176.678","PERIGEE":"221.066"},{"ORDINAL":"2","COMMENT":"GENERATED VIA SPACETRACK.ORG API","ORIGINATOR":"JSPOC","NORAD_CAT_ID":"41342","OBJECT_NAME":"H-2A DEB","OBJECT_TYPE":"DEBRIS","CLASSIFICATION_TYPE":"U","INTLDES":"16012F","EPOCH":"2016-03-23 08:29:17","EPOCH_MICROSECONDS":"535552","MEAN_MOTION":"15.01914318","ECCENTRICITY":"0.0006509","INCLINATION":"31.0081","RA_OF_ASC_NODE":"94.3495","ARG_OF_PERICENTER":"242.0633","MEAN_ANOMALY":"117.8672","EPHEMERIS_TYPE":"0","ELEMENT_SET_NO":"999","REV_AT_EPOCH":"525","BSTAR":"0.0042039","MEAN_MOTION_DOT":"0.00056758","MEAN_MOTION_DDOT":"0","FILE":"2010795","TLE_LINE0":"0 H-2A DEB","TLE_LINE1":"1 41342U 16012F   16083.35367518  .00056758  00000-0  42039-2 0  9991","TLE_LINE2":"2 41342  31.0081  94.3495 0006509 242.0633 117.8672 15.01914318  5250","OBJECT_ID":"2016-012F","OBJECT_NUMBER":"41342","SEMIMAJOR_AXIS":"6939.130","PERIOD":"95.877","APOGEE":"565.512","PERIGEE":"556.479"},{"ORDINAL":"4","COMMENT":"GENERATED VIA SPACETRACK.ORG API","ORIGINATOR":"JSPOC","NORAD_CAT_ID":"40616","OBJECT_NAME":"ARIANE 5 DEB (SYLDA)","OBJECT_TYPE":"DEBRIS","CLASSIFICATION_TYPE":"U","INTLDES":"15022D","EPOCH":"2016-03-23 08:56:31","EPOCH_MICROSECONDS":"229952","MEAN_MOTION":"3.56921981","ECCENTRICITY":"0.6363424","INCLINATION":"5.5416","RA_OF_ASC_NODE":"171.7021","ARG_OF_PERICENTER":"151.6313","MEAN_ANOMALY":"266.6098","EPHEMERIS_TYPE":"0","ELEMENT_SET_NO":"999","REV_AT_EPOCH":"874","BSTAR":"0.0069059","MEAN_MOTION_DOT":"0.00172853","MEAN_MOTION_DDOT":"0","FILE":"2010688","TLE_LINE0":"0 ARIANE 5 DEB (SYLDA)","TLE_LINE1":"1 40616U 15022D   16083.37258368  .00172853  00000-0  69059-2 0  9994","TLE_LINE2":"2 40616   5.5416 171.7021 6363424 151.6313 266.6098  3.56921981  8747","OBJECT_ID":"2015-022D","OBJECT_NUMBER":"40616","SEMIMAJOR_AXIS":"18086.435","PERIOD":"403.449","APOGEE":"23217.465","PERIGEE":"199.134"},{"ORDINAL":"3","COMMENT":"GENERATED VIA SPACETRACK.ORG API","ORIGINATOR":"JSPOC","NORAD_CAT_ID":"40616","OBJECT_NAME":"ARIANE 5 DEB (SYLDA)","OBJECT_TYPE":"DEBRIS","CLASSIFICATION_TYPE":"U","INTLDES":"15022D","EPOCH":"2016-03-23 08:56:31","EPOCH_MICROSECONDS":"597152","MEAN_MOTION":"3.56917761","ECCENTRICITY":"0.6363501","INCLINATION":"5.542","RA_OF_ASC_NODE":"171.701","ARG_OF_PERICENTER":"151.6311","MEAN_ANOMALY":"266.6134","EPHEMERIS_TYPE":"0","ELEMENT_SET_NO":"999","REV_AT_EPOCH":"874","BSTAR":"0.0072299","MEAN_MOTION_DOT":"0.00181417","MEAN_MOTION_DDOT":"0","FILE":"2010872","TLE_LINE0":"0 ARIANE 5 DEB (SYLDA)","TLE_LINE1":"1 40616U 15022D   16083.37258793  .00181417  00000-0  72299-2 0  9992","TLE_LINE2":"2 40616   5.5420 171.7010 6363501 151.6311 266.6134  3.56917761  8746","OBJECT_ID":"2015-022D","OBJECT_NUMBER":"40616","SEMIMAJOR_AXIS":"18086.577","PERIOD":"403.454","APOGEE":"23217.838","PERIGEE":"199.047"},{"ORDINAL":"1","COMMENT":"GENERATED VIA SPACETRACK.ORG API","ORIGINATOR":"JSPOC","NORAD_CAT_ID":"41108","OBJECT_NAME":"FREGAT DEB (TANK)","OBJECT_TYPE":"DEBRIS","CLASSIFICATION_TYPE":"U","INTLDES":"15074D","EPOCH":"2016-03-23 09:30:13","EPOCH_MICROSECONDS":"86720","MEAN_MOTION":"10.85669501","ECCENTRICITY":"0.2281176","INCLINATION":"50.3888","RA_OF_ASC_NODE":"43.2355","ARG_OF_PERICENTER":"208.7717","MEAN_ANOMALY":"136.5935","EPHEMERIS_TYPE":"0","ELEMENT_SET_NO":"999","REV_AT_EPOCH":"1114","BSTAR":"0.00068496","MEAN_MOTION_DOT":"0.0002203","MEAN_MOTION_DDOT":"2.3616e-06","FILE":"2011024","TLE_LINE0":"0 FREGAT DEB (TANK)","TLE_LINE1":"1 41108U 15074D   16083.39598480  .00022030  23616-5  68496-3 0  9991","TLE_LINE2":"2 41108  50.3888  43.2355 2281176 208.7717 136.5935 10.85669501 11149","OBJECT_ID":"2015-074D","OBJECT_NUMBER":"41108","SEMIMAJOR_AXIS":"8615.293","PERIOD":"132.637","APOGEE":"4202.458","PERIGEE":"271.858"},{"ORDINAL":"2","COMMENT":"GENERATED VIA SPACETRACK.ORG API","ORIGINATOR":"JSPOC","NORAD_CAT_ID":"40877","OBJECT_NAME":"ARIANE 5 DEB (SYLDA)","OBJECT_TYPE":"DEBRIS","CLASSIFICATION_TYPE":"U","INTLDES":"15039D","EPOCH":"2016-03-23 09:41:25","EPOCH_MICROSECONDS":"480032","MEAN_MOTION":"2.40952586","ECCENTRICITY":"0.7192847","INCLINATION":"4.9083","RA_OF_ASC_NODE":"17.5065","ARG_OF_PERICENTER":"355.3666","MEAN_ANOMALY":"0.4395","EPHEMERIS_TYPE":"0","ELEMENT_SET_NO":"999","REV_AT_EPOCH":"497","BSTAR":"0.014306","MEAN_MOTION_DOT":"0.00108847","MEAN_MOTION_DDOT":"0","FILE":"2010973","TLE_LINE0":"0 ARIANE 5 DEB (SYLDA)","TLE_LINE1":"1 40877U 15039D   16083.40376713  .00108847  00000-0  14306-1 0  9996","TLE_LINE2":"2 40877   4.9083  17.5065 7192847 355.3666   0.4395  2.40952586  4970","OBJECT_ID":"2015-039D","OBJECT_NUMBER":"40877","SEMIMAJOR_AXIS":"23502.502","PERIOD":"597.627","APOGEE":"34029.358","PERIGEE":"219.377"},{"ORDINAL":"4","COMMENT":"GENERATED VIA SPACETRACK.ORG API","ORIGINATOR":"JSPOC","NORAD_CAT_ID":"40735","OBJECT_NAME":"ARIANE 5 DEB (SYLDA)","OBJECT_TYPE":"DEBRIS","CLASSIFICATION_TYPE":"U","INTLDES":"15034D","EPOCH":"2016-03-23 12:35:20","EPOCH_MICROSECONDS":"980896","MEAN_MOTION":"2.38312389","ECCENTRICITY":"0.7203737","INCLINATION":"4.1141","RA_OF_ASC_NODE":"344.9878","ARG_OF_PERICENTER":"22.2951","MEAN_ANOMALY":"357.3664","EPHEMERIS_TYPE":"0","ELEMENT_SET_NO":"999","REV_AT_EPOCH":"579","BSTAR":"0.016187","MEAN_MOTION_DOT":"0.00071514","MEAN_MOTION_DDOT":"0","FILE":"2011024","TLE_LINE0":"0 ARIANE 5 DEB (SYLDA)","TLE_LINE1":"1 40735U 15034D   16083.52454839  .00071514  00000-0  16187-1 0  9992","TLE_LINE2":"2 40735   4.1141 344.9878 7203737  22.2951 357.3664  2.38312389  5799","OBJECT_ID":"2015-034D","OBJECT_NUMBER":"40735","SEMIMAJOR_AXIS":"23675.769","PERIOD":"604.248","APOGEE":"34353.035","PERIGEE":"242.232"},{"ORDINAL":"4","COMMENT":"GENERATED VIA SPACETRACK.ORG API","ORIGINATOR":"JSPOC","NORAD_CAT_ID":"40943","OBJECT_NAME":"ARIANE 5 DEB (SYLDA)","OBJECT_TYPE":"DEBRIS","CLASSIFICATION_TYPE":"U","INTLDES":"15054D","EPOCH":"2016-03-23 14:15:34","EPOCH_MICROSECONDS":"873632","MEAN_MOTION":"2.39736964","ECCENTRICITY":"0.7209717","INCLINATION":"6.1575","RA_OF_ASC_NODE":"70.13","ARG_OF_PERICENTER":"324.2942","MEAN_ANOMALY":"4.0865","EPHEMERIS_TYPE":"0","ELEMENT_SET_NO":"999","REV_AT_EPOCH":"405","BSTAR":"0.010958","MEAN_MOTION_DOT":"0.00131234","MEAN_MOTION_DDOT":"0","FILE":"2011025","TLE_LINE0":"0 ARIANE 5 DEB (SYLDA)","TLE_LINE1":"1 40943U 15054D   16083.59415363  .00131234  00000-0  10958-1 0  9997","TLE_LINE2":"2 40943   6.1575  70.1300 7209717 324.2942   4.0865  2.39736964  4057","OBJECT_ID":"2015-054D","OBJECT_NUMBER":"40943","SEMIMAJOR_AXIS":"23581.884","PERIOD":"600.658","APOGEE":"34205.620","PERIGEE":"201.878"}]